[{"OBJECT_NAME":"STARLINK-31071","OBJECT_ID":"2023-200P","EPOCH":"2026-03-09T06:04:46.746048","MEAN_MOTION":15.27562352,"ECCENTRICITY":4.28e-5,"INCLINATION":43.0003,"RA_OF_ASC_NODE":11.1431,"ARG_OF_PERICENTER":287.779,"MEAN_ANOMALY":72.3015,"EPHEMERIS_TYPE":0,"CLASSIFICATION_TYPE":"U","NORAD_CAT_ID":58602,"ELEMENT_SET_NO":999,"REV_AT_EPOCH":12542,"BSTAR":-5.1839648e-5,"MEAN_MOTION_DOT":-1.687e-5,"MEAN_MOTION_DDOT":0},{"OBJECT_NAME":"FLOCK 4G-34","OBJECT_ID":"2025-009AT","EPOCH":"2026-03-09T17:34:06.952224","MEAN_MOTION":15.27131464,"ECCENTRICITY":6.743e-5,"INCLINATION":97.4004,"RA_OF_ASC_NODE":151.0149,"ARG_OF_PERICENTER":348.828,"MEAN_ANOMALY":11.2944,"EPHEMERIS_TYPE":0,"CLASSIFICATION_TYPE":"U","NORAD_CAT_ID":62650,"ELEMENT_SET_NO":999,"REV_AT_EPOCH":6372,"BSTAR":0.00049338357,"MEAN_MOTION_DOT":0.00013063,"MEAN_MOTION_DDOT":0}]
